SPAINSAT                
1 28945U 06007A   26173.33249633 -.00000215  00000+0  00000+0 0  9990
2 28945   0.5774  86.4605 0004957   1.8703 271.7163  1.00272242 74273
JCSAT-5A                
1 29045U 06010A   26173.84203561 -.00000325  00000+0  00000+0 0  9994
2 29045   1.1251  84.1736 0002105 357.0773 264.9414  1.00270539 73828
ASTRA 1KR               
1 29055U 06012A   26173.81964880  .00000122  00000+0  00000+0 0  9996
2 29055   0.4892  83.2338 0003576   3.9169 137.9102  1.00273547 45755
GALAXY 16 (G-16)        
1 29236U 06023A   26173.65375047 -.00000124  00000+0  00000+0 0  9995
2 29236   0.0408 156.7444 0002724 295.3004 315.1330  1.00271729 73022
EUTELSAT 33F            
1 29270U 06032A   26173.86584722  .00000158  00000+0  00000+0 0  9994
2 29270   1.6771  82.1915 0003987   7.5288 166.1179  1.00273953 47368
JCSAT-3A                
1 29272U 06033A   26173.84116894 -.00000342  00000+0  00000+0 0  9992
2 29272   0.0063 353.9943 0002059  96.1601 251.6824  1.00271580 47797
KOREASAT 5 (MUGUNGWHA 5)
1 29349U 06034A   26173.83830892 -.00000355  00000+0  00000+0 0  9992
2 29349   1.8001  82.9310 0001582  51.2534 191.6826  1.00271723 41379
DIRECTV 9S              
1 29494U 06043A   26173.65331714 -.00000112  00000+0  00000+0 0  9993
2 29494   2.4357  80.8443 0005216  15.8344 308.1447  1.00271538 51434
OPTUS D1                
1 29495U 06043B   26173.79365273 -.00000182  00000+0  00000+0 0  9993
2 29495   3.0500  79.5935 0003600   3.9016 265.1657  1.00271321 72171
BADR-4                  
1 29526U 06051A   26173.82276881  .00000158  00000+0  00000+0 0  9999
2 29526   2.0202  81.0689 0004944   2.0476 158.5308  1.00274520 51326
WILDBLUE-1              
1 29643U 06054A   26173.68239051 -.00000048  00000+0  00000+0 0  9993
2 29643   2.8181  80.4191 0001562   7.8155 317.0756  1.00272190 53840
SKYNET 5A               
1 30794U 07007B   26173.84361977 -.00000271  00000+0  00000+0 0  9990
2 30794   5.3142  73.6729 0003734  22.3685 213.8981  1.00272898 70755
ANIK F3                 
1 31102U 07009A   26173.68239051  .00000001  00000+0  00000+0 0  9995
2 31102   1.2126  83.7973 0002737   9.2661 304.7437  1.00273791 46616
ASTRA 1L                
1 31306U 07016A   26173.81097389 -.00000182  00000+0  00000+0 0  9991
2 31306   1.3371  81.5476 0005507  15.3114  81.5893  1.00270885 45041
GALAXY 17 (G-17)        
1 31307U 07016B   26173.58513416 -.00000205  00000+0  00000+0 0  9996
2 31307   2.9864  79.8385 0004487  16.3469 300.2203  1.00273968 69851
INTELSAT 11 (IS-11)     
1 32253U 07044B   26173.83588225 -.00000085  00000+0  00000+0 0  9992
2 32253   3.5809  78.6071 0002714  85.1003 149.2391  0.99048639 68508
WGS F1 (USA 195)        
1 32258U 07046A   26173.30843144 -.00000266  00000+0  00000+0 0  9996
2 32258   0.0356  87.1513 0000477 352.5552 259.3063  1.00275383 52381
SKYNET 5B               
1 32294U 07056B   26173.82086214  .00000140  00000+0  00000+0 0  9991
2 32294   5.2659  73.4377 0003498  19.7888 138.3916  1.00269045 68254
ASTRA 4A                
1 32299U 07057A   26173.38910336  .00000035  00000+0  00000+0 0  9992
2 32299   0.0286 301.1665 0002572 155.5547 318.7484  1.00274998 51699
HORIZONS-2              
1 32388U 07063B   26173.80109385 -.00000251  00000+0  00000+0 0  9990
2 32388   2.6174  80.5632 0004044   2.3944  42.6107  1.00272323 67872
THURAYA-3               
1 32404U 08001A   26173.68732450 -.00000003  00000+0  00000+0 0  9998
2 32404   5.9990  35.8135 0001705 146.5428  46.7272  1.00008348 67549
THOR 5                  
1 32487U 08006A   26173.81574878 -.00000006  00000+0  00000+0 0  9990
2 32487   0.0467 253.7600 0002608 203.1084 107.0454  1.00273373 67370
AMC-14                  
1 32708U 08011A   26173.11630836 -.00000071  00000+0  00000+0 0  9994
2 32708  24.0100  20.4593 0045272   7.4641 351.2925  1.00355768 68213
DIRECTV 11              
1 32729U 08013A   26173.65366381 -.00000123  00000+0  00000+0 0  9997
2 32729   0.0374 183.5738 0000333 254.1692 329.2283  1.00271880 45647
ICO G1                  
1 32763U 08016A   26173.65487715 -.00000173  00000+0  00000+0 0  9998
2 32763   5.5316  36.1233 0002400  38.9580 338.6528  1.00268837 66608
VINASAT-1               
1 32767U 08018A   26173.63100532 -.00000326  00000+0  00000+0 0  9991
2 32767   0.0106 336.9171 0001595 121.1055 171.8937  1.00271385 66644
STAR ONE C2             
1 32768U 08018B   26173.58912084 -.00000275  00000+0  00000+0 0  9992
2 32768   1.2556  82.4264 0002736  15.2174 320.2097  1.00272367 66701
AMOS-3                  
1 32794U 08022A   26173.82441549  .00000128  00000+0  00000+0 0  9992
2 32794   0.4707  86.1666 0002282  67.5872  97.1235  1.00480098 82396
GALAXY 18 (G-18)        
1 32951U 08024A   26173.68239051  .00000028  00000+0  00000+0 0  9995
2 32951   0.0168 317.3415 0002953 135.8802 300.2983  1.00273153 45902
ZHONGXING-9             
1 33051U 08028A   26173.89816758 -.00000246  00000+0  00000+0 0  9992
2 33051   0.7847  85.2951 0003916 346.5149 254.9876  1.00272019 66095
SKYNET 5C               
1 33055U 08030A   26173.66981296 -.00000139  00000+0  00000+0 0  9995
2 33055   3.8037  76.9811 0004251  21.1167  36.0897  1.00271840 66010
TURKSAT 3A              
1 33056U 08030B   26173.46758205  .00000148  00000+0  00000+0 0  9995
2 33056   0.0693  81.9533 0005203 354.1103  44.8951  1.00273691 52415
ECHOSTAR 11             
1 33207U 08035A   26173.65158380 -.00000056  00000+0  00000+0 0  9996
2 33207   1.0202  84.1312 0002665 348.8449 322.6176  1.00271369 51260
SUPERBIRD-C2            
1 33274U 08038A   26173.84281561 -.00000304  00000+0  00000+0 0  9998
2 33274   2.3764  81.2006 0006276  27.4938 241.7326  1.00271280105781
INMARSAT 4-F3           
1 33278U 08039A   26173.65392381 -.00000140  00000+0  00000+0 0  9993
2 33278   4.2969  31.6334 0002717  65.2835 311.3301  1.00271275 46604
NIMIQ 4                 
1 33373U 08044A   26173.58582749 -.00000218  00000+0  00000+0 0  9992
2 33373   0.0136  85.2251 0001925   3.2102 311.2234  1.00270450 65038
GALAXY 19 (G-19)        
1 33376U 08045A   26173.58279414 -.00000137  00000+0  00000+0 0  9998
2 33376   0.0495 260.3338 0002678 198.8202 284.4136  1.00271887 64956
ASTRA 1M                
1 33436U 08057A   26173.81973546  .00000124  00000+0  00000+0 0  9996
2 33436   0.3117  82.5992 0005093  27.3236 115.5682  1.00274810 45794
EUTELSAT HOTBIRD 13C    
1 33459U 08065A   26173.80594720 -.00000281  00000+0  00000+0 0  9997
2 33459   2.9655  79.1324 0003604  12.4201  59.2442  1.00269392 47405
EXPRESS-AM44            
1 33595U 09007A   26173.67111296 -.00000088  00000+0  00000+0 0  9998
2 33595   3.4788  78.3349 0004010   4.1344  58.9587  1.00271132 52345
NSS-9                   
1 33749U 09008A   26173.78086012  .00000074  00000+0  00000+0 0  9993
2 33749   1.2771  82.6152 0002173 352.2054 300.3045  1.00272633 63574
TELSTAR 11N             
1 34111U 09009A   26173.80846054 -.00000248  00000+0  00000+0 0  9995
2 34111   0.0366  80.3029 0002505   9.4992  74.6689  1.00273000 46300
WGS F2 (USA 204)        
1 34713U 09017A   26173.47082896  .00000070  00000+0  00000+0 0  9993
2 34713   0.0181  17.8194 0000230  22.8250  97.0087  1.00271382 45671
SES-7 (PROTOSTAR 2)     
1 34941U 09027A   26173.83735559 -.00000341  00000+0  00000+0 0  9990
2 34941   0.0523  75.1246 0000264 303.6824 301.8829  1.00269542 62688
MEASAT-3A               
1 35362U 09032A   26173.77626676 -.00000107  00000+0  00000+0 0  9996
2 35362   0.0254  19.8045 0003104  64.6921 265.9265  1.00272224  8086
GOES 14                 
1 35491U 09033A   26173.84333561 -.00000309  00000+0  00000+0 0  9990
2 35491   1.7055  82.9838 0002063  15.0231 255.1544  1.00109515  6647
FM-5                    
1 35493U 09034A   26173.29945806 -.00000199  00000+0  00000+0 0  9990
2 35493   0.0247 286.0015 0000823  43.5796 322.5457  1.00270518 46695
TERRESTAR-1             
1 35496U 09035A   26173.65132380 -.00000057  00000+0  00000+0 0  9992
2 35496   5.1838  48.7928 0002758  36.1248 309.3722  1.00270480 62183
ASIASAT 5               
1 35696U 09042A   26173.89766525  .00000000  00000+0  00000+0 0  9999
2 35696   0.0386  57.9603 0001540  38.3324 238.4989  1.00264613 61767
JCSAT-12 (JCSAT-RA)     
1 35755U 09044A   26173.84203561 -.00000324  00000+0  00000+0 0  9998
2 35755   0.0209 302.2646 0000322 352.1297  51.7912  1.00272537 61668
OPTUS D3                
1 35756U 09044B   26173.34780696 -.00000146  00000+0  00000+0 0  9995
2 35756   0.8759 268.6839 0003703 189.0413  94.1414  1.00263359 61614
NIMIQ 5                 
1 35873U 09050A   26173.51635684 -.00000255  00000+0  00000+0 0  9998
2 35873   0.0461 269.2063 0002796 167.6736 307.0064  1.00269856 61393
AMAZONAS 2              
1 35942U 09054A   26173.58773417 -.00000257  00000+0  00000+0 0  9995
2 35942   1.8304  82.9888 0003355   9.9574 317.4154  1.00272065 61234
COMSATBW-1              
1 35943U 09054B   26173.88382704  .00000028  00000+0  00000+0 0  9999
2 35943   0.0529 149.5896 0002983 300.8499 201.8172  1.00270281 61367
NSS-12                  
1 36032U 09058A   26173.84558902  .00000074  00000+0  00000+0 0  9995
2 36032   0.0835 275.7337 0005112 143.1217 213.5815  1.00274572 60979
THOR 6                  
1 36033U 09058B   26173.81574878 -.00000006  00000+0  00000+0 0  9999
2 36033   0.0369 113.8315 0001837 340.9286 109.0613  1.00272636 61068
INTELSAT 14 (IS-14)     
1 36097U 09064A   26173.80698720 -.00000270  00000+0  00000+0 0  9991
2 36097   0.0165   0.6211 0002543  91.3670  64.5123  1.00271004 60663
EUTELSAT 36B            
1 36101U 09065A   26173.82588882  .00000115  00000+0  00000+0 0  9994
2 36101   0.5061  81.1992 0005670   8.4662 169.1343  1.00270896 60768
INTELSAT 15 (IS-15)     
1 36106U 09067A   26173.79766740 -.00000182  00000+0  00000+0 0  9993
2 36106   0.0172   6.8032 0002343  86.8995 189.5811  1.00271993 41284
